BEIDOU-3S IGSO-1S       
1 40549U 15019A   26194.62309473 -.00000169  00000+0  00000+0 0  9999
2 40549  49.1434 295.1438 0038658 197.4315 114.4487  1.00301762 41331
NAVSTAR 74 (USA 262)    
1 40730U 15033A   26203.12292288 -.00000021  00000+0  00000+0 0  9995
2 40730  53.9562 265.6444 0115499  30.3091 330.4232  2.00554225 80697
BEIDOU-3S M2S           
1 40748U 15037A   26202.15122814 -.00000100  00000+0  00000+0 0  9995
2 40748  54.8384 300.8761 0009598 256.5759 103.3515  1.86231942 74759
BEIDOU-3S M1S           
1 40749U 15037B   26201.28070027 -.00000099  00000+0  00000+0 0  9994
2 40749  54.8358 300.8934 0002614  62.5237 297.5378  1.86254901 74743
GSAT0206 (GALILEO 10)   
1 40890U 15045B   26201.30589843  .00000058  00000+0  00000+0 0  9998
2 40890  54.9380 220.6893 0002088 330.0131  30.0144  1.70473732 67606
BEIDOU-3S IGSO-2S       
1 40938U 15053A   26203.63249753 -.00000089  00000+0  00000+0 0  9996
2 40938  49.1658 258.3562 0065894 193.8013 168.7106  1.00252107 39714
NAVSTAR 75 (USA 265)    
1 41019U 15062A   26201.68168135 -.00000086  00000+0  00000+0 0  9991
2 41019  56.9821  29.5218 0113089 230.8511 128.1725  2.00567122 78508
GSAT-15                 
1 41028U 15065A   26203.49027009 -.00000254  00000+0  00000+0 0  9996
2 41028   0.0994 263.2486 0003606 179.4604 127.5282  1.00271481 39155
GSAT0209 (GALILEO 12)   
1 41174U 15079A   26200.88772413 -.00000039  00000+0  00000+0 0  9990
2 41174  55.8457 100.3644 0004618 358.4074   1.6290  1.70473671 65332
GSAT0208 (GALILEO 11)   
1 41175U 15079B   26202.86782092 -.00000047  00000+0  00000+0 0  9994
2 41175  55.8455 100.3069 0004206   2.1198 357.9162  1.70473606 65787
IRNSS-1E                
1 41241U 16003A   26202.03020233 -.00000317  00000+0  00000+0 0  9997
2 41241  33.3051  59.2585 0019282 176.3074 185.9195  1.00275296 38420
NAVSTAR 76 (USA 266)    
1 41328U 16007A   26201.77276081 -.00000059  00000+0  00000+0 0  9994
2 41328  55.5446  88.1275 0096649 247.5642 111.4594  2.00575241 76514
COSMOS 2514 [GLONASS-M] 
1 41330U 16008A   26201.60265593 -.00000085  00000+0  00000+0 0  9995
2 41330  64.9994 311.8597 0012484 201.8566 158.1123  2.13102623 81331
BEIDOU-2 IGSO-6         
1 41434U 16021A   26177.11016981 -.00000145  00000+0  00000+0 0  9995
2 41434  60.2385  37.9495 0057558 231.0163 137.2672  1.00258926 37578
IRNSS-1G                
1 41469U 16027A   26203.56864356 -.00000336  00000+0  00000+0 0  9997
2 41469   5.2809  96.6559 0005793  13.4106 164.5538  1.00265918 37531
GSAT0211 (GALILEO 14)   
1 41549U 16030A   26201.23161694  .00000057  00000+0  00000+0 0  9996
2 41549  55.0891 220.7852 0003443 318.9851  41.0285  1.70473740 63235
GSAT0210 (GALILEO 13)   
1 41550U 16030B   26202.66202904  .00000067  00000+0  00000+0 0  9997
2 41550  55.0875 220.7441 0004715 247.5267 112.4667  1.70473953 63259
BEIDOU-2 G7             
1 41586U 16037A   26203.63622421 -.00000351  00000+0  00000+0 0  9998
2 41586   1.8061  69.5594 0006156   1.8546 208.5568  1.00270266  7243
EUTELSAT 117 WEST B     
1 41589U 16038B   26203.48655935 -.00000009  00000+0  00000+0 0  9991
2 41589   0.0061 166.5957 0000269 341.2172 210.5892  1.00275290 37016
GSAT0207 (GALILEO 15)   
1 41859U 16069A   26202.94068604 -.00000048  00000+0  00000+0 0  9999
2 41859  55.5185 100.1241 0004493 340.0542  19.9624  1.70473718 59996
GSAT0212 (GALILEO 16)   
1 41860U 16069B   26202.20750608 -.00000046  00000+0  00000+0 0  9990
2 41860  55.5158 100.1394 0004406  15.8741 344.1750  1.70473851 60239
GSAT0213 (GALILEO 17)   
1 41861U 16069C   26203.16122456 -.00000048  00000+0  00000+0 0  9993
2 41861  55.5184 100.1209 0003814 320.5981  39.4080  1.70474392 60116
GSAT0214 (GALILEO 18)   
1 41862U 16069D   26202.13435722 -.00000045  00000+0  00000+0 0  9990
2 41862  55.5164 100.1420 0003141 335.1519  24.8684  1.70473784 60226
SES-15                  
1 42709U 17026A   26203.50461384  .00000064  00000+0  00000+0 0  9990
2 42709   0.0287 320.6475 0000580 129.2600 262.8394  1.00268122  7789
QZS-2 (MICHIBIKI-2)     
1 42738U 17028A   26203.44061192 -.00000120  00000+0  00000+0 0  9994
2 42738  39.3767 242.6339 0756704 269.6876  88.9804  1.00274888  7982
QZS-3 (MICHIBIKI-3)     
1 42917U 17048A   26203.52822449 -.00000344  00000+0  00000+0 0  9992
2 42917   0.0590 203.2900 0002850 283.6707 130.4854  1.00269245 32619
COSMOS 2522 [GLONASS-M] 
1 42939U 17055A   26201.44027304  .00000084  00000+0  00000+0 0  9990
2 42939  64.0809 190.7524 0010884 240.6370 119.2556  2.13101801 68681
QZS-4 (MICHIBIKI-4)     
1 42965U 17062A   26202.25726799 -.00000358  00000+0  00000+0 0  9996
2 42965  40.0879 343.0509 0746939 268.6822 279.3148  1.00289434 32147
BEIDOU-3 M1             
1 43001U 17069A   26201.96127414 -.00000079  00000+0  00000+0 0  9991
2 43001  56.7221  61.9715 0008832 327.7311  32.2769  1.86231306 59235
BEIDOU-3 M2             
1 43002U 17069B   26201.90009830 -.00000079  00000+0  00000+0 0  9997
2 43002  56.7212  62.0097 0007807 355.9026   4.1531  1.86230310 59226
GSAT0215 (GALILEO 19)   
1 43055U 17079A   26202.62380459  .00000067  00000+0  00000+0 0  9991
2 43055  55.0665 220.5584 0003765 269.3113  90.6885  1.70474444 53579
